{"type": "FeatureCollection", "features": [ {"type": "Feature", "properties": {"norad_id": 66718, "name": "FLOCK 4H-15", "group": "last-30-days", "lat": 49.67392124099712, "lon": 64.48804785020471, "alt_km": 512.0877973536126, "timestamp": "2025-12-27T20:30:58.021788+00:00", "meta": {"OBJECT_NAME": "FLOCK 4H-15", "OBJECT_ID": "2025-276BE", "EPOCH": "2025-12-27T12:22:50.639232", "MEAN_MOTION": 15.17159305, "ECCENTRICITY": 0.0003203, "INCLINATION": 97.4415, "RA_OF_ASC_NODE": 73.0128, "ARG_OF_PERICENTER": 245.5341, "MEAN_ANOMALY": 114.5559, "EPHEMERIS_TYPE": 0, "CLASSIFICATION_TYPE": "U", "NORAD_CAT_ID": 66718, "ELEMENT_SET_NO": 999, "REV_AT_EPOCH": 436, "BSTAR": 0.00034572, "MEAN_MOTION_DOT": 6.798e-05, "MEAN_MOTION_DDOT": 0}, "tle": {"line1": "1 66718U 25276BE  25361.51586388  .00006798  00000+0  34572-3 0  9994", "line2": "2 66718  97.4415  73.0128 0003203 245.5341 114.5559 15.17159305  4363"}}, "geometry": {"type": "Point", "coordinates": [64.48804785020471, 49.67392124099712]}}, {"type": "Feature", "properties": {"norad_id": 66719, "name": "FLOCK 4H-16", "group": "last-30-days", "lat": 60.61688959646242, "lon": 59.9314160331343, "alt_km": 510.5802820854951, "timestamp": "2025-12-27T20:30:58.021798+00:00", "meta": {"OBJECT_NAME": "FLOCK 4H-16", "OBJECT_ID": "2025-276BF", "EPOCH": "2025-12-27T12:00:02.000160", "MEAN_MOTION": 15.17249858, "ECCENTRICITY": 0.0003525, "INCLINATION": 97.4429, "RA_OF_ASC_NODE": 73.0076, "ARG_OF_PERICENTER": 229.3539, "MEAN_ANOMALY": 55.3836, "EPHEMERIS_TYPE": 0, "CLASSIFICATION_TYPE": "U", "NORAD_CAT_ID": 66719, "ELEMENT_SET_NO": 999, "REV_AT_EPOCH": 378, "BSTAR": 0.0020972, "MEAN_MOTION_DOT": 0.0004188, "MEAN_MOTION_DDOT": 0}, "tle": {"line1": "1 66719U 25276BF  25361.50002315  .00041880  00000+0  20972-2 0  9996", "line2": "2 66719  97.4429  73.0076 0003525 229.3539  55.3836 15.17249858  3785"}}, "geometry": {"type": "Point", "coordinates": [59.9314160331343, 60.61688959646242]}}, {"type": "Feature", "properties": {"norad_id": 66720, "name": "FLOCK 4H-17", "group": "last-30-days", "lat": 32.49898589308571, "lon": -101.82704632676895, "alt_km": 507.69083496595704, "timestamp": "2025-12-27T20:30:58.021810+00:00", "meta": {"OBJECT_NAME": "FLOCK 4H-17", "OBJECT_ID": "2025-276BG", "EPOCH": "2025-12-27T12:00:02.000160", "MEAN_MOTION": 15.18096235, "ECCENTRICITY": 0.0003196, "INCLINATION": 97.4433, "RA_OF_ASC_NODE": 73.0465, "ARG_OF_PERICENTER": 176.6023, "MEAN_ANOMALY": 192.6034, "EPHEMERIS_TYPE": 0, "CLASSIFICATION_TYPE": "U", "NORAD_CAT_ID": 66720, "ELEMENT_SET_NO": 999, "REV_AT_EPOCH": 177, "BSTAR": 0.0025325, "MEAN_MOTION_DOT": 0.00051898, "MEAN_MOTION_DDOT": 0}, "tle": {"line1": "1 66720U 25276BG  25361.50002315  .00051898  00000+0  25325-2 0  9995", "line2": "2 66720  97.4433  73.0465 0003196 176.6023 192.6034 15.18096235  1772"}}, "geometry": {"type": "Point", "coordinates": [-101.82704632676895, 32.49898589308571]}}, {"type": "Feature", "properties": {"norad_id": 66721, "name": "FLOCK 4H-18", "group": "last-30-days", "lat": 53.18784125707258, "lon": 63.277596273998064, "alt_km": 510.947888977209, "timestamp": "2025-12-27T20:30:58.021821+00:00", "meta": {"OBJECT_NAME": "FLOCK 4H-18", "OBJECT_ID": "2025-276BH", "EPOCH": "2025-12-27T12:21:54.631296", "MEAN_MOTION": 15.17192319, "ECCENTRICITY": 0.0002484, "INCLINATION": 97.4375, "RA_OF_ASC_NODE": 72.9964, "ARG_OF_PERICENTER": 257.9479, "MEAN_ANOMALY": 102.1476, "EPHEMERIS_TYPE": 0, "CLASSIFICATION_TYPE": "U", "NORAD_CAT_ID": 66721, "ELEMENT_SET_NO": 999, "REV_AT_EPOCH": 436, "BSTAR": 0.00032089, "MEAN_MOTION_DOT": 6.31e-05, "MEAN_MOTION_DDOT": 0}, "tle": {"line1": "1 66721U 25276BH  25361.51521564  .00006310  00000+0  32089-3 0  9994", "line2": "2 66721  97.4375  72.9964 0002484 257.9479 102.1476 15.17192319  4360"}}, "geometry": {"type": "Point", "coordinates": [63.277596273998064, 53.18784125707258]}}, {"type": "Feature", "properties": {"norad_id": 66722, "name": "FLOCK 4H-19", "group": "last-30-days", "lat": 13.368981880836227, "lon": -104.84131318503304, "alt_km": 510.2327845863756, "timestamp": "2025-12-27T20:30:58.021831+00:00", "meta": {"OBJECT_NAME": "FLOCK 4H-19", "OBJECT_ID": "2025-276BJ", "EPOCH": "2025-12-27T10:17:45.339072", "MEAN_MOTION": 15.18378311, "ECCENTRICITY": 0.0002614, "INCLINATION": 97.4379, "RA_OF_ASC_NODE": 72.9607, "ARG_OF_PERICENTER": 143.9938, "MEAN_ANOMALY": 216.1473, "EPHEMERIS_TYPE": 0, "CLASSIFICATION_TYPE": "U", "NORAD_CAT_ID": 66722, "ELEMENT_SET_NO": 999, "REV_AT_EPOCH": 364, "BSTAR": 0.0008834, "MEAN_MOTION_DOT": 0.00018122, "MEAN_MOTION_DDOT": 0}, "tle": {"line1": "1 66722U 25276BJ  25361.42899698  .00018122  00000+0  88340-3 0  9996", "line2": "2 66722  97.4379  72.9607 0002614 143.9938 216.1473 15.18378311  3640"}}, "geometry": {"type": "Point", "coordinates": [-104.84131318503304, 13.368981880836227]}}, {"type": "Feature", "properties": {"norad_id": 66723, "name": "FLOCK 4H-20", "group": "last-30-days", "lat": 9.349995032224506, "lon": -105.36969090162476, "alt_km": 510.36337210816146, "timestamp": "2025-12-27T20:30:58.021841+00:00", "meta": {"OBJECT_NAME": "FLOCK 4H-20", "OBJECT_ID": "2025-276BK", "EPOCH": "2025-12-27T11:51:35.074944", "MEAN_MOTION": 15.18384655, "ECCENTRICITY": 0.0003171, "INCLINATION": 97.4415, "RA_OF_ASC_NODE": 73.0423, "ARG_OF_PERICENTER": 157.8408, "MEAN_ANOMALY": 202.2964, "EPHEMERIS_TYPE": 0, "CLASSIFICATION_TYPE": "U", "NORAD_CAT_ID": 66723, "ELEMENT_SET_NO": 999, "REV_AT_EPOCH": 361, "BSTAR": 0.00053718, "MEAN_MOTION_DOT": 0.00010985, "MEAN_MOTION_DDOT": 0}, "tle": {"line1": "1 66723U 25276BK  25361.49415596  .00010985  00000+0  53718-3 0  9995", "line2": "2 66723  97.4415  73.0423 0003171 157.8408 202.2964 15.18384655  3611"}}, "geometry": {"type": "Point", "coordinates": [-105.36969090162476, 9.349995032224506]}}, {"type": "Feature", "properties": {"norad_id": 66724, "name": "FLOCK 4H-21", "group": "last-30-days", "lat": 5.610151108489033, "lon": -105.88275300454431, "alt_km": 510.9554103148839, "timestamp": "2025-12-27T20:30:58.021851+00:00", "meta": {"OBJECT_NAME": "FLOCK 4H-21", "OBJECT_ID": "2025-276BL", "EPOCH": "2025-12-27T12:00:02.000160", "MEAN_MOTION": 15.18392618, "ECCENTRICITY": 0.000296, "INCLINATION": 97.4381, "RA_OF_ASC_NODE": 73.033, "ARG_OF_PERICENTER": 158.4497, "MEAN_ANOMALY": 237.4782, "EPHEMERIS_TYPE": 0, "CLASSIFICATION_TYPE": "U", "NORAD_CAT_ID": 66724, "ELEMENT_SET_NO": 999, "REV_AT_EPOCH": 379, "BSTAR": 0.0026166, "MEAN_MOTION_DOT": 0.00054096, "MEAN_MOTION_DDOT": 0}, "tle": {"line1": "1 66724U 25276BL  25361.50002315  .00054096  00000+0  26166-2 0  9996", "line2": "2 66724  97.4381  73.0330 0002960 158.4497 237.4782 15.18392618  3796"}}, "geometry": {"type": "Point", "coordinates": [-105.88275300454431, 5.610151108489033]}}, {"type": "Feature", "properties": {"norad_id": 66725, "name": "FLOCK 4H-22", "group": "last-30-days", "lat": 81.4133316968883, "lon": 13.447750501521202, "alt_km": 506.83773272661165, "timestamp": "2025-12-27T20:30:58.021861+00:00", "meta": {"OBJECT_NAME": "FLOCK 4H-22", "OBJECT_ID": "2025-276BM", "EPOCH": "2025-12-27T10:38:41.252064", "MEAN_MOTION": 15.17551101, "ECCENTRICITY": 0.0001517, "INCLINATION": 97.437, "RA_OF_ASC_NODE": 72.9355, "ARG_OF_PERICENTER": 261.1627, "MEAN_ANOMALY": 98.9435, "EPHEMERIS_TYPE": 0, "CLASSIFICATION_TYPE": "U", "NORAD_CAT_ID": 66725, "ELEMENT_SET_NO": 999, "REV_AT_EPOCH": 435, "BSTAR": 0.00033136, "MEAN_MOTION_DOT": 6.586e-05, "MEAN_MOTION_DDOT": 0}, "tle": {"line1": "1 66725U 25276BM  25361.44353301  .00006586  00000+0  33136-3 0  9991", "line2": "2 66725  97.4370  72.9355 0001517 261.1627  98.9435 15.17551101  4355"}}, "geometry": {"type": "Point", "coordinates": [13.447750501521202, 81.4133316968883]}}, {"type": "Feature", "properties": {"norad_id": 66726, "name": "FLOCK 4H-23", "group": "last-30-days", "lat": 60.36535857122453, "lon": 60.070554976230035, "alt_km": 510.58685056684226, "timestamp": "2025-12-27T20:30:58.021871+00:00", "meta": {"OBJECT_NAME": "FLOCK 4H-23", "OBJECT_ID": "2025-276BN", "EPOCH": "2025-12-27T10:45:01.107072", "MEAN_MOTION": 15.1727908, "ECCENTRICITY": 0.0003657, "INCLINATION": 97.4436, "RA_OF_ASC_NODE": 72.9575, "ARG_OF_PERICENTER": 222.2131, "MEAN_ANOMALY": 137.8821, "EPHEMERIS_TYPE": 0, "CLASSIFICATION_TYPE": "U", "NORAD_CAT_ID": 66726, "ELEMENT_SET_NO": 999, "REV_AT_EPOCH": 435, "BSTAR": 0.00033339, "MEAN_MOTION_DOT": 6.576e-05, "MEAN_MOTION_DDOT": 0}, "tle": {"line1": "1 66726U 25276BN  25361.44792948  .00006576  00000+0  33339-3 0  9990", "line2": "2 66726  97.4436  72.9575 0003657 222.2131 137.8821 15.17279080  4353"}}, "geometry": {"type": "Point", "coordinates": [60.070554976230035, 60.36535857122453]}}, {"type": "Feature", "properties": {"norad_id": 66727, "name": "FLOCK 4H-24", "group": "last-30-days", "lat": 70.83557723190536, "lon": 51.266684466102504, "alt_km": 508.88986080528866, "timestamp": "2025-12-27T20:30:58.021883+00:00", "meta": {"OBJECT_NAME": "FLOCK 4H-24", "OBJECT_ID": "2025-276BP", "EPOCH": "2025-12-27T10:42:08.908416", "MEAN_MOTION": 15.17383355, "ECCENTRICITY": 0.0002961, "INCLINATION": 97.4435, "RA_OF_ASC_NODE": 72.9626, "ARG_OF_PERICENTER": 239.6461, "MEAN_ANOMALY": 120.448, "EPHEMERIS_TYPE": 0, "CLASSIFICATION_TYPE": "U", "NORAD_CAT_ID": 66727, "ELEMENT_SET_NO": 999, "REV_AT_EPOCH": 435, "BSTAR": 0.00030902, "MEAN_MOTION_DOT": 6.108e-05, "MEAN_MOTION_DDOT": 0}, "tle": {"line1": "1 66727U 25276BP  25361.44593644  .00006108  00000+0  30902-3 0  9997", "line2": "2 66727  97.4435  72.9626 0002961 239.6461 120.4480 15.17383355  4355"}}, "geometry": {"type": "Point", "coordinates": [51.266684466102504, 70.83557723190536]}}]}